NORAD_CAT_ID,OBJECT_NAME,OBJECT_TYPE,EPOCH,MEAN_MOTION,ECCENTRICITY,INCLINATION,RA_OF_ASC_NODE,ARG_OF_PERICENTER,MEAN_ANOMALY,BSTAR,MEAN_MOTION_DOT,MEAN_MOTION_DDOT,TLE_LINE0,TLE_LINE1,TLE_LINE2,SEMIMAJOR_AXIS,PERIOD,APOGEE,PERIGEE,DECAYED
51793.0,STARLINK-3633,PAYLOAD,2023-08-27 08:12:11,15.08845941,0.0001376,53.2176,183.1697,94.2842,265.8308,4.0235e-05,3.53e-06,0.0,0 STARLINK-3633,1 51793U 22017AB  23239.34180038  .00000353  00000-0  40235-4 0  9992,2 51793  53.2176 183.1697 0001376  94.2842 265.8308 15.08845941 84270,6917.862,95.437,540.679,538.775,0.0
51793.0,STARLINK-3633,PAYLOAD,2023-08-27 19:19:54,15.0883573,0.0001485,53.2175,181.0888,93.8489,266.2672,7.022e-05,8.3e-06,0.0,0 STARLINK-3633,1 51793U 22017AB  23239.80548734  .00000830  00000-0  70220-4 0  9991,2 51793  53.2175 181.0888 0001485  93.8489 266.2672 15.08835730 84343,6917.893,95.438,540.786,538.731,0.0
51793.0,STARLINK-3633,PAYLOAD,2023-08-28 04:52:12,15.088427,0.0001266,53.2176,179.3055,96.5741,263.5395,0.0001047,1.379e-05,0.0,0 STARLINK-3633,1 51793U 22017AB  23240.20292219  .00001379  00000-0  10470-3 0  9990,2 51793  53.2176 179.3055 0001266  96.5741 263.5395 15.08842700 84402,6917.872,95.437,540.613,538.861,0.0
51793.0,STARLINK-3633,PAYLOAD,2023-08-28 12:49:08,15.08840974,0.000131,53.2175,177.818,94.4035,265.7106,4.0525e-05,3.57e-06,0.0,0 STARLINK-3633,1 51793U 22017AB  23240.53412430  .00000357  00000-0  40525-4 0  9995,2 51793  53.2175 177.8180 0001310  94.4035 265.7106 15.08840974 84456,6917.877,95.437,540.649,538.836,0.0
51793.0,STARLINK-3633,PAYLOAD,2023-08-29 01:32:14,15.08834878,0.000152,53.2176,175.4418,101.9365,258.1798,4.4271e-06,-2.18e-06,0.0,0 STARLINK-3633,1 51793U 22017AB  23241.06405185 -.00000218  00000-0  44271-5 0  9993,2 51793  53.2176 175.4418 0001520 101.9365 258.1798 15.08834878 84536,6917.896,95.438,540.813,538.71,0.0
51793.0,STARLINK-3633,PAYLOAD,2023-08-29 04:43:00,15.08838505,0.0001508,53.2179,174.8463,98.1515,261.9648,3.2422e-05,2.28e-06,0.0,0 STARLINK-3633,1 51793U 22017AB  23241.19652943  .00000228  00000-0  32422-4 0  9997,2 51793  53.2179 174.8463 0001508  98.1515 261.9648 15.08838505 84551,6917.885,95.438,540.793,538.707,0.0
51793.0,STARLINK-3633,PAYLOAD,2023-08-30 02:58:24,15.08839238,0.0001405,53.2175,170.6809,89.4292,270.6862,6.1749e-07,-2.78e-06,0.0,0 STARLINK-3633,1 51793U 22017AB  23242.12389239 -.00000278  00000-0  61749-6 0  9998,2 51793  53.2175 170.6809 0001405  89.4292 270.6862 15.08839238 84690,6917.883,95.438,540.72,538.776,0.0
51793.0,STARLINK-3633,PAYLOAD,2023-08-31 01:13:48,15.08822194,0.0001414,53.2176,166.5174,90.243,269.8724,0.00028747,4.288e-05,0.0,0 STARLINK-3633,1 51793U 22017AB  23243.05125896  .00004288  00000-0  28747-3 0  9990,2 51793  53.2176 166.5174 0001414  90.2430 269.8724 15.08822194 84830,6917.935,95.439,540.778,538.822,0.0
51793.0,STARLINK-3633,PAYLOAD,2023-09-01 01:04:34,15.08845384,0.0001369,53.2171,162.0575,91.1196,268.9953,9.245e-05,1.184e-05,0.0,0 STARLINK-3633,1 51793U 22017AB  23244.04484832  .00001184  00000-0  92450-4 0  9993,2 51793  53.2171 162.0575 0001369  91.1196 268.9953 15.08845384 84985,6917.864,95.437,540.676,538.782,0.0
51793.0,STARLINK-3633,PAYLOAD,2023-09-01 12:12:17,15.08841802,0.00013,53.2168,159.9752,92.988,267.126,8.2132e-05,1.02e-05,0.0,0 STARLINK-3633,1 51793U 22017AB  23244.50853034  .00001020  00000-0  82132-4 0  9993,2 51793  53.2168 159.9752 0001300  92.9880 267.1260 15.08841802 85059,6917.875,95.437,540.639,538.841,0.0
51793.0,STARLINK-3633,PAYLOAD,2023-09-01 18:33:49,15.08843253,0.0001454,53.2163,158.7848,97.5148,262.6009,3.9217e-05,3.36e-06,0.0,0 STARLINK-3633,1 51793U 22017AB  23244.77349102  .00000336  00000-0  39217-4 0  9993,2 51793  53.2163 158.7848 0001454  97.5148 262.6009 15.08843253 85092,6917.87,95.437,540.741,538.73,0.0
51793.0,STARLINK-3633,PAYLOAD,2023-09-01 23:19:58,15.0884595,0.0001425,53.2164,157.8934,96.1199,263.9955,5.7336e-05,6.25e-06,0.0,0 STARLINK-3633,1 51793U 22017AB  23244.97220820  .00000625  00000-0  57336-4 0  9993,2 51793  53.2164 157.8934 0001425  96.1199 263.9955 15.08845950 85122,6917.862,95.437,540.713,538.741,0.0
51793.0,STARLINK-3633,PAYLOAD,2023-09-03 00:46:09,15.08842122,0.0001106,53.2161,153.1373,87.7439,272.3679,-8.0974e-06,-4.17e-06,0.0,0 STARLINK-3633,1 51793U 22017AB  23246.03205185 -.00000417  00000-0 -80974-5 0  9995,2 51793  53.2161 153.1373 0001106  87.7439 272.3679 15.08842122 85286,6917.874,95.437,540.504,538.974,0.0
51793.0,STARLINK-3633,PAYLOAD,2023-09-03 10:18:27,15.08842201,0.0001208,53.2156,151.3508,89.205,270.908,3.4135e-05,2.55e-06,0.0,0 STARLINK-3633,1 51793U 22017AB  23246.42949026  .00000255  00000-0  34135-4 0  9992,2 51793  53.2156 151.3508 0001208  89.2050 270.9080 15.08842201 85344,6917.874,95.437,540.574,538.903,0.0
51793.0,STARLINK-3633,PAYLOAD,2023-09-04 00:36:57,15.08832846,0.0001371,53.218,148.679,84.0935,276.0213,-2.3271e-05,-6.58e-06,0.0,0 STARLINK-3633,1 51793U 22017AB  23247.02566074 -.00000658  00000-0 -23271-4 0  9995,2 51793  53.2180 148.6790 0001371  84.0935 276.0213 15.08832846 85438,6917.902,95.438,540.716,538.819,0.0
51793.0,STARLINK-3633,PAYLOAD,2023-09-04 10:09:15,15.08834215,0.0001514,53.2185,146.8947,93.2774,266.8391,3.7272e-05,3.05e-06,0.0,0 STARLINK-3633,1 51793U 22017AB  23247.42309988  .00000305  00000-0  37272-4 0  9991,2 51793  53.2185 146.8947 0001514  93.2774 266.8391 15.08834215 85491,6917.898,95.438,540.81,538.716,0.0
51793.0,STARLINK-3633,PAYLOAD,2023-09-05 00:27:44,15.08839609,0.0001415,53.2183,144.2182,93.1518,266.9636,-6.3306e-06,-3.89e-06,0.0,0 STARLINK-3633,1 51793U 22017AB  23248.01925988 -.00000389  00000-0 -63306-5 0  9993,2 51793  53.2183 144.2182 0001415  93.1518 266.9636 15.08839609 85582,6917.882,95.438,540.725,538.768,0.0
51793.0,STARLINK-3633,PAYLOAD,2023-09-05 03:38:30,15.08839392,0.0001421,53.2183,143.6236,94.0584,266.057,-1.099e-06,-3.05e-06,0.0,0 STARLINK-3633,1 51793U 22017AB  23248.15174010 -.00000305  00000-0 -10990-5 0  9999,2 51793  53.2183 143.6236 0001421  94.0584 266.0570 15.08839392 85605,6917.882,95.438,540.73,538.764,0.0
51793.0,STARLINK-3633,PAYLOAD,2023-09-06 01:53:53,15.08843287,0.0001302,53.2177,139.4588,82.748,277.366,0.00010548,1.391e-05,0.0,0 STARLINK-3633,1 51793U 22017AB  23249.07909474  .00001391  00000-0  10548-3 0  9992,2 51793  53.2177 139.4588 0001302  82.7480 277.3660 15.08843287 85746,6917.87,95.437,540.636,538.835,0.0
51793.0,STARLINK-3633,PAYLOAD,2023-09-06 22:33:54,15.08839752,0.0001316,53.2172,135.593,86.2533,273.8609,6.6515e-05,7.71e-06,0.0,0 STARLINK-3633,1 51793U 22017AB  23249.94021804  .00000771  00000-0  66515-4 0  9997,2 51793  53.2172 135.5930 0001316  86.2533 273.8609 15.08839752 85872,6917.881,95.438,540.657,538.836,0.0
51793.0,STARLINK-3633,PAYLOAD,2023-09-07 16:03:09,15.08840054,0.0001396,53.2178,132.3234,87.5297,272.5855,3.201e-05,2.22e-06,0.0,0 STARLINK-3633,1 51793U 22017AB  23250.66885765  .00000222  00000-0  32010-4 0  9996,2 51793  53.2178 132.3234 0001396  87.5297 272.5855 15.08840054 85987,6917.88,95.438,540.711,538.779,0.0
51793.0,STARLINK-3633,PAYLOAD,2023-09-07 22:24:41,15.08839505,0.0001376,53.2168,131.1325,91.8006,268.3144,2.5309e-05,1.15e-06,0.0,0 STARLINK-3633,1 51793U 22017AB  23250.93381809  .00000115  00000-0  25309-4 0  9990,2 51793  53.2168 131.1325 0001376  91.8006 268.3144 15.08839505 86027,6917.882,95.438,540.699,538.795,0.0
51793.0,STARLINK-3633,PAYLOAD,2023-09-08 15:53:56,15.08841534,0.000146,53.2183,127.8609,98.6425,261.4733,8.2159e-05,1.02e-05,0.0,0 STARLINK-3633,1 51793U 22017AB  23251.66245375  .00001020  00000-0  82159-4 0  9990,2 51793  53.2183 127.8609 0001460  98.6425 261.4733 15.08841534 86130,6917.876,95.437,540.751,538.731,0.0
51793.0,STARLINK-3633,PAYLOAD,2023-09-08 22:15:27,15.0885444,0.0001331,53.217,126.6713,95.3408,264.7736,0.00017552,2.508e-05,0.0,0 STARLINK-3633,1 51793U 22017AB  23251.92740218  .00002508  00000-0  17552-3 0  9991,2 51793  53.2170 126.6713 0001331  95.3408 264.7736 15.08854440 86174,6917.836,95.437,540.622,538.78,0.0
51793.0,STARLINK-3633,PAYLOAD,2023-09-09 01:26:13,15.08857222,0.0001518,53.2178,126.0786,92.2745,267.8421,0.00019769,2.861e-05,0.0,0 STARLINK-3633,1 51793U 22017AB  23252.05987884  .00002861  00000-0  19769-3 0  9992,2 51793  53.2178 126.0786 0001518  92.2745 267.8421 15.08857222 86191,6917.828,95.436,540.743,538.643,0.0
51793.0,STARLINK-3633,PAYLOAD,2023-09-09 18:55:30,15.08832914,0.0001578,53.2175,122.8074,93.4797,266.6376,-2.9805e-07,-2.93e-06,0.0,0 STARLINK-3633,1 51793U 22017AB  23252.78854170 -.00000293  00000-0 -29805-6 0  9997,2 51793  53.2175 122.8074 0001578  93.4797 266.6376 15.08832914 86308,6917.902,95.438,540.859,538.675,0.0
51793.0,STARLINK-3633,PAYLOAD,2023-09-10 01:17:02,15.08835735,0.000153,53.2176,121.6167,97.4267,262.6899,1.8308e-05,3e-08,0.0,0 STARLINK-3633,1 51793U 22017AB  23253.05350078  .00000003  00000-0  18308-4 0  9997,2 51793  53.2176 121.6167 0001530  97.4267 262.6899 15.08835735 86347,6917.893,95.438,540.817,538.7,0.0
51793.0,STARLINK-3633,PAYLOAD,2023-09-11 01:07:49,15.08844717,0.0001376,53.217,117.1558,93.5715,266.5435,-4.8054e-05,-1.053e-05,0.0,0 STARLINK-3633,1 51793U 22017AB  23254.04709976 -.00001053  00000-0 -48054-4 0  9991,2 51793  53.2170 117.1558 0001376  93.5715 266.5435 15.08844717 86493,6917.866,95.437,540.683,538.779,0.0
51793.0,STARLINK-3633,PAYLOAD,2023-09-11 13:50:55,15.08832768,0.0001544,53.2169,114.7766,96.0727,264.0441,0.00012045,1.629e-05,0.0,0 STARLINK-3633,1 51793U 22017AB  23254.57702562  .00001629  00000-0  12045-3 0  9990,2 51793  53.2169 114.7766 0001544  96.0727 264.0441 15.08832768 86575,6917.902,95.438,540.836,538.699,0.0
51793.0,STARLINK-3633,PAYLOAD,2023-09-12 00:58:36,15.08841642,0.0001526,53.2167,112.6955,95.2203,264.8963,0.00019027,2.742e-05,0.0,0 STARLINK-3633,1 51793U 22017AB  23255.04070106  .00002742  00000-0  19027-3 0  9999,2 51793  53.2167 112.6955 0001526  95.2203 264.8963 15.08841642 86646,6917.875,95.437,540.796,538.685,0.0
